[
    {
        "Altitude(m)": 702690.463138412,
        "Argument of Periapsis(deg)": 0.0011390121186627068,
        "Eccentricity": 0.0,
        "Inclination(deg)": 45.0,
        "Latitude(deg)": 10.69369533931692,
        "Longitude(deg)": -25.875574645222407,
        "Mean Anomaly(deg)": -195.21027833525193,
        "RAAN(deg)": 264.9989248058542,
        "Satellite Name": "Constellation 1 1176",
        "Satellite Number": 1176,
        "Semi-Major Axis(m)": 7083131.272910544,
        "Time(s)": 19
    },
    {
        "Altitude(m)": 702690.9819589778,
        "Argument of Periapsis(deg)": 0.0011989601249081123,
        "Eccentricity": 0.0,
        "Inclination(deg)": 45.0,
        "Latitude(deg)": 10.651247311307868,
        "Longitude(deg)": -25.835300970369047,
        "Mean Anomaly(deg)": -195.14957719500197,
        "RAAN(deg)": 264.9988682166886,
        "Satellite Name": "Constellation 1 1176",
        "Satellite Number": 1176,
        "Semi-Major Axis(m)": 7083131.272910544,
        "Time(s)": 20
    },
    {
        "Altitude(m)": 702691.5201753683,
        "Argument of Periapsis(deg)": 0.001258908131153518,
        "Eccentricity": 0.0,
        "Inclination(deg)": 45.0,
        "Latitude(deg)": 10.608792927159469,
        "Longitude(deg)": -25.79503961654216,
        "Mean Anomaly(deg)": -195.0888760547521,
        "RAAN(deg)": 264.998811627523,
        "Satellite Name": "Constellation 1 1176",
        "Satellite Number": 1176,
        "Semi-Major Axis(m)": 7083131.272910544,
        "Time(s)": 21
    },
    {
        "Altitude(m)": 702692.0778035251,
        "Argument of Periapsis(deg)": 0.0013188561373989236,
        "Eccentricity": 0.0,
        "Inclination(deg)": 45.0,
        "Latitude(deg)": 10.566332214725017,
        "Longitude(deg)": -25.754790700274263,
        "Mean Anomaly(deg)": -195.02817491450216,
        "RAAN(deg)": 264.9987550383575,
        "Satellite Name": "Constellation 1 1176",
        "Satellite Number": 1176,
        "Semi-Major Axis(m)": 7083131.272910544,
        "Time(s)": 22
    },
    {
        "Altitude(m)": 702692.6548593144,
        "Argument of Periapsis(deg)": 0.0013788041436443293,
        "Eccentricity": 0.0,
        "Inclination(deg)": 45.0,
        "Latitude(deg)": 10.523865201835001,
        "Longitude(deg)": -25.714553833831584,
        "Mean Anomaly(deg)": -194.9674737742523,
        "RAAN(deg)": 264.9986984491919,
        "Satellite Name": "Constellation 1 1176",
        "Satellite Number": 1176,
        "Semi-Major Axis(m)": 7083131.272910544,
        "Time(s)": 23
    },
    {
        "Altitude(m)": 702693.251358505,
        "Argument of Periapsis(deg)": 0.001438752149889735,
        "Eccentricity": 0.0,
        "Inclination(deg)": 45.0,
        "Latitude(deg)": 10.481391916295415,
        "Longitude(deg)": -25.67432913379612,
        "Mean Anomaly(deg)": -194.90677263400238,
        "RAAN(deg)": 264.9986418600263,
        "Satellite Name": "Constellation 1 1176",
        "Satellite Number": 1176,
        "Semi-Major Axis(m)": 7083131.272910544,
        "Time(s)": 24
    },
    {
        "Altitude(m)": 702693.8673167966,
        "Argument of Periapsis(deg)": 0.0014987001561351404,
        "Eccentricity": 0.0,
        "Inclination(deg)": 45.0,
        "Latitude(deg)": 10.438912385889129,
        "Longitude(deg)": -25.63411654867707,
        "Mean Anomaly(deg)": -194.84607149375253,
        "RAAN(deg)": 264.99858527086076,
        "Satellite Name": "Constellation 1 1176",
        "Satellite Number": 1176,
        "Semi-Major Axis(m)": 7083131.272910544,
        "Time(s)": 25
    },
    {
        "Altitude(m)": 702694.5027498008,
        "Argument of Periapsis(deg)": 0.001558648162380546,
        "Eccentricity": 0.0,
        "Inclination(deg)": 45.0,
        "Latitude(deg)": 10.396426638375594,
        "Longitude(deg)": -25.593916027008547,
        "Mean Anomaly(deg)": -194.78537035350263,
        "RAAN(deg)": 264.9985286816952,
        "Satellite Name": "Constellation 1 1176",
        "Satellite Number": 1176,
        "Semi-Major Axis(m)": 7083131.272910544,
        "Time(s)": 26
    },
    {
        "Altitude(m)": 702695.1576730404,
        "Argument of Periapsis(deg)": 0.0016185961686259519,
        "Eccentricity": 0.0,
        "Inclination(deg)": 45.0,
        "Latitude(deg)": 10.353934701490939,
        "Longitude(deg)": -25.553727517348708,
        "Mean Anomaly(deg)": -194.7246692132527,
        "RAAN(deg)": 264.99847209252965,
        "Satellite Name": "Constellation 1 1176",
        "Satellite Number": 1176,
        "Semi-Major Axis(m)": 7083131.272910544,
        "Time(s)": 27
    },
    {
        "Altitude(m)": 702695.8321019652,
        "Argument of Periapsis(deg)": 0.0016785441748713573,
        "Eccentricity": 0.0,
        "Inclination(deg)": 45.0,
        "Latitude(deg)": 10.311436602948168,
        "Longitude(deg)": -25.5135509682803,
        "Mean Anomaly(deg)": -194.66396807300282,
        "RAAN(deg)": 264.9984155033641,
        "Satellite Name": "Constellation 1 1176",
        "Satellite Number": 1176,
        "Semi-Major Axis(m)": 7083131.272910544,
        "Time(s)": 28
    },
    {
        "Altitude(m)": 702696.5260519369,
        "Argument of Periapsis(deg)": 0.001738492181116763,
        "Eccentricity": 0.0,
        "Inclination(deg)": 45.0,
        "Latitude(deg)": 10.268932370437115,
        "Longitude(deg)": -25.473386328410054,
        "Mean Anomaly(deg)": -194.60326693275292,
        "RAAN(deg)": 264.99835891419855,
        "Satellite Name": "Constellation 1 1176",
        "Satellite Number": 1176,
        "Semi-Major Axis(m)": 7083131.272910544,
        "Time(s)": 29
    },
    {
        "Altitude(m)": 702697.239538231,
        "Argument of Periapsis(deg)": 0.0017984401873621684,
        "Eccentricity": 0.0,
        "Inclination(deg)": 45.0,
        "Latitude(deg)": 10.226422031624487,
        "Longitude(deg)": -25.43323371446621,
        "Mean Anomaly(deg)": -194.54256579250304,
        "RAAN(deg)": 264.9983023250329,
        "Satellite Name": "Constellation 1 1176",
        "Satellite Number": 1176,
        "Semi-Major Axis(m)": 7083131.272910544,
        "Time(s)": 30
    },
    {
        "Altitude(m)": 702697.9725760432,
        "Argument of Periapsis(deg)": 0.0018583881936075745,
        "Eccentricity": 0.0,
        "Inclination(deg)": 45.0,
        "Latitude(deg)": 10.183905614154815,
        "Longitude(deg)": -25.393092738909715,
        "Mean Anomaly(deg)": -194.48186465225314,
        "RAAN(deg)": 264.99824573586733,
        "Satellite Name": "Constellation 1 1176",
        "Satellite Number": 1176,
        "Semi-Major Axis(m)": 7083131.272910544,
        "Time(s)": 31
    },
    {
        "Altitude(m)": 702698.7251804816,
        "Argument of Periapsis(deg)": 0.0019183361998529795,
        "Eccentricity": 0.0,
        "Inclination(deg)": 45.0,
        "Latitude(deg)": 10.14138314564916,
        "Longitude(deg)": -25.35296351851684,
        "Mean Anomaly(deg)": -194.4211635120032,
        "RAAN(deg)": 264.9981891467018,
        "Satellite Name": "Constellation 1 1176",
        "Satellite Number": 1176,
        "Semi-Major Axis(m)": 7083131.272910544,
        "Time(s)": 32
    },
    {
        "Altitude(m)": 702699.4973665819,
        "Argument of Periapsis(deg)": 0.0019782842060983856,
        "Eccentricity": 0.0,
        "Inclination(deg)": 45.0,
        "Latitude(deg)": 10.098854653706011,
        "Longitude(deg)": -25.312846001990515,
        "Mean Anomaly(deg)": -194.36046237175333,
        "RAAN(deg)": 264.9981325575362,
        "Satellite Name": "Constellation 1 1176",
        "Satellite Number": 1176,
        "Semi-Major Axis(m)": 7083131.272910544,
        "Time(s)": 33
    },
    {
        "Altitude(m)": 702700.2891492748,
        "Argument of Periapsis(deg)": 0.0020382322123437906,
        "Eccentricity": 0.0,
        "Inclination(deg)": 45.0,
        "Latitude(deg)": 10.056320165901433,
        "Longitude(deg)": -25.27274013805776,
        "Mean Anomaly(deg)": -194.29976123150342,
        "RAAN(deg)": 264.9980759683707,
        "Satellite Name": "Constellation 1 1176",
        "Satellite Number": 1176,
        "Semi-Major Axis(m)": 7083131.272910544,
        "Time(s)": 34
    },
    {
        "Altitude(m)": 702701.1005434308,
        "Argument of Periapsis(deg)": 0.002098180218589197,
        "Eccentricity": 0.0,
        "Inclination(deg)": 45.0,
        "Latitude(deg)": 10.01377970978891,
        "Longitude(deg)": -25.23264587546932,
        "Mean Anomaly(deg)": -194.2390600912535,
        "RAAN(deg)": 264.99801937920506,
        "Satellite Name": "Constellation 1 1176",
        "Satellite Number": 1176,
        "Semi-Major Axis(m)": 7083131.272910544,
        "Time(s)": 35
    },
    {
        "Altitude(m)": 702701.9315638187,
        "Argument of Periapsis(deg)": 0.002158128224834602,
        "Eccentricity": 0.0,
        "Inclination(deg)": 45.0,
        "Latitude(deg)": 9.971233312899653,
        "Longitude(deg)": -25.192563162999537,
        "Mean Anomaly(deg)": -194.1783589510036,
        "RAAN(deg)": 264.9979627900395,
        "Satellite Name": "Constellation 1 1176",
        "Satellite Number": 1176,
        "Semi-Major Axis(m)": 7083131.272910544,
        "Time(s)": 36
    },
    {
        "Altitude(m)": 702702.7822251316,
        "Argument of Periapsis(deg)": 0.002218076231080008,
        "Eccentricity": 0.0,
        "Inclination(deg)": 45.0,
        "Latitude(deg)": 9.92868100274228,
        "Longitude(deg)": -25.152492117543424,
        "Mean Anomaly(deg)": -194.1176578107538,
        "RAAN(deg)": 264.99790620087396,
        "Satellite Name": "Constellation 1 1176",
        "Satellite Number": 1176,
        "Semi-Major Axis(m)": 7083131.272910544,
        "Time(s)": 37
    }
]